norad_id,name,regime,epoch,line1,line2,inclination,eccentricity,mean_motion,raan,arg_pericenter,mean_anomaly
43231,O3B FM15,MEO,20044.16012407,1 43231U 18024A   20044.16012407 -.00000021 +00000-0 +00000-0 0 0001\,2 43231 000.0479 003.7536 0002849 322.7799 033.4425 05.0011516003529,0.0479,0.0002849,5.0011516,3.7536,322.7799,33.4425
43231,O3B FM15,MEO,20044.55990558,1 43231U 18024A   20044.55990558 -.00000021 +00000-0 +00000-0 0 0001\,2 43231 000.0479 003.7341 0002848 323.2221 033.0200 05.0011516303531,0.0479,0.0002848,5.00115163,3.7341,323.2221,33.02
43231,O3B FM15,MEO,20045.35946865,1 43231U 18024A   20045.35946865 -.00000022 +00000-0 +00000-0 0 0001\,2 43231 000.0479 003.6958 0002846 324.0150 032.2657 05.0011516403536,0.0479,0.0002846,5.00115164,3.6958,324.015,32.2657
43231,O3B FM15,MEO,20046.75870381,1 43231U 18024A   20046.75870381 -.00000025 +00000-0 +00000-0 0 0001\,2 43231 000.0479 003.6659 0002848 325.4460 030.8650 05.0011518303543,0.0479,0.0002848,5.00115183,3.6659,325.446,30.865
43231,O3B FM15,MEO,20047.35837599,1 43231U 18024A   20047.35837599 -.00000026  00000-0  00000+0 0  1642\,2 43231   0.0479   3.6434 0002848 326.1048  30.2288  5.00115195 35481,0.0479,0.0002848,5.00115195,3.6434,326.1048,30.2288
43231,O3B FM15,MEO,20048.35782957,1 43231U 18024A   20048.35782957 -.00000028 +00000-0 +00000-0 0 0001\,2 43231 000.0480 003.6277 0002847 327.0771 029.2725 05.0011521603551,0.048,0.0002847,5.00115216,3.6277,327.0771,29.2725
43231,O3B FM15,MEO,20048.95750191,1 43231U 18024A   20048.95750191 -.00000029 +00000-0 +00000-0 0 0001\,2 43231 000.0480 003.6153 0002846 327.6913 028.6708 05.0011521403554,0.048,0.0002846,5.00115214,3.6153,327.6913,28.6708
43231,O3B FM15,MEO,20049.95695564,1 43231U 18024A   20049.95695564 -.00000031 +00000-0 +00000-0 0 0001\,2 43231 000.0480 003.5875 0002846 328.6602 027.7300 05.0011522303559,0.048,0.0002846,5.00115223,3.5875,328.6602,27.73
43231,O3B FM15,MEO,20051.95586309,1 43231U 18024A   20051.95586309 -.00000032  00000-0  00000+0 0  1651\,2 43231   0.0480   3.6380 0002846 330.6037  25.7367  5.00115259 35713,0.048,0.0002846,5.00115259,3.638,330.6037,25.7367
43231,O3B FM15,MEO,20052.15575377,1 43231U 18024A   20052.15575377 -.00000032 +00000-0 +00000-0 0 0001\,2 43231 000.0480 003.6381 0002846 330.7965 025.5440 05.0011526703570,0.048,0.0002846,5.00115267,3.6381,330.7965,25.544
43231,O3B FM15,MEO,20052.35564437,1 43231U 18024A   20052.35564437 -.00000032 +00000-0 +00000-0 0 0001\,2 43231 000.0480 003.6348 0002846 330.9998 025.3440 05.0011528403571,0.048,0.0002846,5.00115284,3.6348,330.9998,25.344
43231,O3B FM15,MEO,20053.35509810,1 43231U 18024A   20053.35509810 -.00000032 +00000-0 +00000-0 0 0001\,2 43231 000.0480 003.5065 0002845 332.0856 024.3873 05.0011530203575,0.048,0.0002845,5.00115302,3.5065,332.0856,24.3873
43231,O3B FM15,MEO,20053.75487987,1 43231U 18024A   20053.75487987 -.00000032 +00000-0 +00000-0 0 0001\,2 43231 000.0480 003.4990 0002845 332.4753 024.0052 05.0011529003577,0.048,0.0002845,5.0011529,3.499,332.4753,24.0052
43231,O3B FM15,MEO,20054.35455221,1 43231U 18024A   20054.35455221 -.00000031 +00000-0 +00000-0 0 0001\,2 43231 000.0480 003.5394 0002844 333.0874 023.3533 05.0011530203581,0.048,0.0002844,5.00115302,3.5394,333.0874,23.3533
43231,O3B FM15,MEO,20054.75433381,1 43231U 18024A   20054.75433381 -.00000031 +00000-0 +00000-0 0 0001\,2 43231 000.0480 003.5303 0002844 333.4534 022.9968 05.0011530403583,0.048,0.0002844,5.00115304,3.5303,333.4534,22.9968
43231,O3B FM15,MEO,20055.15411530,1 43231U 18024A   20055.15411530 -.00000030 +00000-0 +00000-0 0 0001\,2 43231 000.0480 003.4695 0002845 333.8290 022.6823 05.0011531303584,0.048,0.0002845,5.00115313,3.4695,333.829,22.6823
43231,O3B FM15,MEO,20055.75378778,1 43231U 18024A   20055.75378778 -.00000029 +00000-0 +00000-0 0 0001\,2 43231 000.0480 003.5065 0002844 334.4633 022.0117 05.0011531403588,0.048,0.0002844,5.00115314,3.5065,334.4633,22.0117
43231,O3B FM15,MEO,20056.35346027,1 43231U 18024A   20056.35346027 -.00000028  00000-0  00000+0 0  1667\,2 43231   0.0480   3.4350 0002844 335.1397  21.4074  5.00115311 35936,0.048,0.0002844,5.00115311,3.435,335.1397,21.4074
43231,O3B FM15,MEO,20056.55335109,1 43231U 18024A   20056.55335109 -.00000027 +00000-0 +00000-0 0 0001\,2 43231 000.0480 003.4844 0002844 335.3137 021.1843 05.0011531203592,0.048,0.0002844,5.00115312,3.4844,335.3137,21.1843
43231,O3B FM15,MEO,20056.95313272,1 43231U 18024A   20056.95313272 -.00000027 +00000-0 +00000-0 0 0001\,2 43231 000.0480 003.4186 0002844 335.7166 020.8476 05.0011531103593,0.048,0.0002844,5.00115311,3.4186,335.7166,20.8476
43231,O3B FM15,MEO,20058.15247765,1 43231U 18024A   20058.15247765 -.00000024 +00000-0 +00000-0 0 0001\,2 43231 000.0480 003.3887 0002844 336.9209 019.6746 05.0011530703599,0.048,0.0002844,5.00115307,3.3887,336.9209,19.6746
43231,O3B FM15,MEO,20059.35182268,1 43231U 18024A   20059.35182268 -.00000022 +00000-0 +00000-0 0 0001\,2 43231 000.0480 003.4234 0002847 338.1672 018.3951 05.0011529003606,0.048,0.0002847,5.0011529,3.4234,338.1672,18.3951
43231,O3B FM15,MEO,20059.55171343,1 43231U 18024A   20059.55171343 -.00000022 +00000-0 +00000-0 0 0001\,2 43231 000.0480 003.3647 0002847 338.4032 018.2180 05.0011529503607,0.048,0.0002847,5.00115295,3.3647,338.4032,18.218
43231,O3B FM15,MEO,20060.15138566,1 43231U 18024A   20060.15138566 -.00000021 +00000-0 +00000-0 0 0001\,2 43231 000.0480 003.3714 0002846 339.0224 017.5926 05.0011530403610,0.048,0.0002846,5.00115304,3.3714,339.0224,17.5926
43231,O3B FM15,MEO,20060.75105822,1 43231U 18024A   20060.75105822 -.00000020 +00000-0 +00000-0 0 0001\,2 43231 000.0480 003.3703 0002846 339.6186 016.9981 05.0011528603613,0.048,0.0002846,5.00115286,3.3703,339.6186,16.9981
43231,O3B FM15,MEO,20060.95094894,1 43231U 18024A   20060.95094894 -.00000020  00000-0  00000+0 0  1673\,2 43231   0.0480   3.3704 0002846 339.8201  16.7967  5.00115290 36165,0.048,0.0002846,5.0011529,3.3704,339.8201,16.7967
43231,O3B FM15,MEO,20061.35073055,1 43231U 18024A   20061.35073055 -.00000019 +00000-0 +00000-0 0 0001\,2 43231 000.0480 003.3730 0002847 340.2710 016.3436 05.0011528403616,0.048,0.0002847,5.00115284,3.373,340.271,16.3436
43231,O3B FM15,MEO,20061.75051241,1 43231U 18024A   20061.75051241 -.00000019 +00000-0 +00000-0 0 0001\,2 43231 000.0480 003.3692 0002845 341.0903 015.5287 05.0011527003618,0.048,0.0002845,5.0011527,3.3692,341.0903,15.5287
43231,O3B FM15,MEO,20062.35018484,1 43231U 18024A   20062.35018484 -.00000018 +00000-0 +00000-0 0 0001\,2 43231 000.0480 003.3852 0002846 341.7294 014.8740 05.0011525503621,0.048,0.0002846,5.00115255,3.3852,341.7294,14.874
43231,O3B FM15,MEO,20062.74996629,1 43231U 18024A   20062.74996629 -.00000018 +00000-0 +00000-0 0 0001\,2 43231 000.0480 003.3966 0002846 342.1468 014.4455 05.0011525603623,0.048,0.0002846,5.00115256,3.3966,342.1468,14.4455
43231,O3B FM15,MEO,20063.14974755,1 43231U 18024A   20063.14974755 -.00000018 +00000-0 +00000-0 0 0001\,2 43231 000.0480 003.4085 0002847 342.1516 014.4288 05.0011525903625,0.048,0.0002847,5.00115259,3.4085,342.1516,14.4288
43231,O3B FM15,MEO,20065.74832734,1 43231U 18024A   20065.74832734 -.00000018  00000-0  00000+0 0  1686\,2 43231   0.0480   3.5126 0002850 344.8721  11.6053  5.00115216 36408,0.048,0.000285,5.00115216,3.5126,344.8721,11.6053
43231,O3B FM15,MEO,20066.14810847,1 43231U 18024A   20066.14810847 -.00000019 +00000-0 +00000-0 0 0001\,2 43231 000.0480 003.6813 0002851 344.7910 011.5177 05.0011522103640,0.048,0.0002851,5.00115221,3.6813,344.791,11.5177
43231,O3B FM15,MEO,20066.74778098,1 43231U 18024A   20066.74778098 -.00000019 +00000-0 +00000-0 0 0001\,2 43231 000.0480 003.5089 0002846 345.9754 010.5061 05.0011518803642,0.048,0.0002846,5.00115188,3.5089,345.9754,10.5061
43231,O3B FM15,MEO,20067.34745308,1 43231U 18024A   20067.34745308 -.00000019 +00000-0 +00000-0 0 0001\,2 43231 000.0480 003.5989 0002852 346.6013 009.7903 05.0011519803645,0.048,0.0002852,5.00115198,3.5989,346.6013,9.7903
43231,O3B FM15,MEO,20067.74723455,1 43231U 18024A   20067.74723455 -.00000020 +00000-0 +00000-0 0 0001\,2 43231 000.0480 003.6746 0002855 346.1418 010.1738 05.0011519203648,0.048,0.0002855,5.00115192,3.6746,346.1418,10.1738
43231,O3B FM15,MEO,20067.94712532,1 43231U 18024A   20067.94712532 -.00000020 +00000-0 +00000-0 0 0001\,2 43231 000.0480 003.6064 0002850 346.3582 010.0256 05.0011518603648,0.048,0.000285,5.00115186,3.6064,346.3582,10.0256
43231,O3B FM15,MEO,20068.74668819,1 43231U 18024A   20068.74668819 -.00000020 +00000-0 +00000-0 0 0001\,2 43231 000.0480 003.6442 0002852 347.0646 009.2816 05.0011518803652,0.048,0.0002852,5.00115188,3.6442,347.0646,9.2816
43231,O3B FM15,MEO,20069.74614179,1 43231U 18024A   20069.74614179 -.00000021 +00000-0 +00000-0 0 0001\,2 43231 000.0479 003.6804 0002848 348.3127 007.9979 05.0011519703657,0.0479,0.0002848,5.00115197,3.6804,348.3127,7.9979
43231,O3B FM15,MEO,20070.34581418,1 43231U 18024A   20070.34581418 -.00000022  00000-0  00000+0 0  1694\,2 43231   0.0479   3.6952 0002854 349.1078   7.1884  5.00115193 36632,0.0479,0.0002854,5.00115193,3.6952,349.1078,7.1884
43231,O3B FM15,MEO,20070.74559558,1 43231U 18024A   20070.74559558 -.00000022 +00000-0 +00000-0 0 0001\,2 43231 000.0479 003.7694 0002855 349.4855 006.7368 05.0011520303663,0.0479,0.0002855,5.00115203,3.7694,349.4855,6.7368
43231,O3B FM15,MEO,20073.74395703,1 43231U 18024A   20073.74395703 -.00000026 +00000-0 +00000-0 0 0001\,2 43231 000.0479 003.8727 0002851 352.4067 003.7139 05.0011521703678,0.0479,0.0002851,5.00115217,3.8727,352.4067,3.7139
43231,O3B FM15,MEO,20073.94384774,1 43231U 18024A   20073.94384774 -.00000026 +00000-0 +00000-0 0 0001\,2 43231 000.0479 003.8847 0002851 352.5882 003.5205 05.0011522303679,0.0479,0.0002851,5.00115223,3.8847,352.5882,3.5205
43231,O3B FM15,MEO,20074.74341077,1 43231U 18024A   20074.74341077 -.00000028  00000-0  00000+0 0  1705\,2 43231   0.0479   3.8614 0002852 353.3813   2.7511  5.00115227 36851,0.0479,0.0002852,5.00115227,3.8614,353.3813,2.7511
